{
    "links": {
        "self": "http://www.neowsapp.com/rest/v1/neo/3653319?api_key=iIulBulltgU6a56xZRHN4H3l9WmuAYTsLGpBGhQ2"
    },
    "id": "3653319",
    "neo_reference_id": "3653319",
    "name": "(2013 UL9)",
    "designation": "2013 UL9",
    "nasa_jpl_url": "http://ssd.jpl.nasa.gov/sbdb.cgi?sstr=3653319",
    "absolute_magnitude_h": 24.3,
    "estimated_diameter": {
        "kilometers": {
            "estimated_diameter_min": 0.0366906138,
            "estimated_diameter_max": 0.0820427065
        },
        "meters": {
            "estimated_diameter_min": 36.6906137531,
            "estimated_diameter_max": 82.0427064882
        },
        "miles": {
            "estimated_diameter_min": 0.0227984834,
            "estimated_diameter_max": 0.0509789586
        },
        "feet": {
            "estimated_diameter_min": 120.3760332259,
            "estimated_diameter_max": 269.1689931548
        }
    },
    "is_potentially_hazardous_asteroid": false,
    "close_approach_data": [
        {
            "close_approach_date": "2013-10-31",
            "close_approach_date_full": "2013-Oct-31 15:37",
            "epoch_date_close_approach": 1383233820000,
            "relative_velocity": {
                "kilometers_per_second": "7.9380108993",
                "kilometers_per_hour": "28576.8392375889",
                "miles_per_hour": "17756.5365807118"
            },
            "miss_distance": {
                "astronomical": "0.1086601352",
                "lunar": "42.2687925928",
                "kilometers": "16255324.779832024",
                "miles": "10100590.4475849712"
            },
            "orbiting_body": "Earth"
        }
    ],
    "orbital_data": {
        "orbit_id": "10",
        "orbit_determination_date": "2017-04-06 08:43:54",
        "first_observation_date": "2013-10-30",
        "last_observation_date": "2013-11-08",
        "data_arc_in_days": 9,
        "observations_used": 28,
        "orbit_uncertainty": "9",
        "minimum_orbit_intersection": ".108619",
        "jupiter_tisserand_invariant": "3.231",
        "epoch_osculation": "2456598.5",
        "eccentricity": ".5554150354814394",
        "semi_major_axis": "2.475657460570564",
        "inclination": "10.26770403422987",
        "ascending_node_longitude": "217.4604305760688",
        "orbital_period": "1422.768555094231",
        "perihelion_distance": "1.100640084267874",
        "perihelion_argument": "184.0622653566496",
        "aphelion_distance": "3.850674836873255",
        "perihelion_time": "2456600.042387973697",
        "mean_anomaly": "359.6097329614554",
        "mean_motion": ".2530278018241391",
        "equinox": "J2000",
        "orbit_class": {
            "orbit_class_type": "AMO",
            "orbit_class_description": "Near-Earth asteroid orbits similar to that of 1221 Amor",
            "orbit_class_range": "1.017 AU < q (perihelion) < 1.3 AU"
        }
    },
    "is_sentry_object": false
}